[
  {
    "CCSDS_OMM_VERS": "3.0",
    "COMMENT": "GENERATED VIA SPACE-TRACK.ORG API",
    "CREATION_DATE": "2026-02-19T17:59:09",
    "ORIGINATOR": "18 SPCS",
    "OBJECT_NAME": "NIMBUS 2 DEB",
    "OBJECT_ID": "1966-040BK",
    "CENTER_NAME": "EARTH",
    "REF_FRAME": "TEME",
    "TIME_SYSTEM": "UTC",
    "MEAN_ELEMENT_THEORY": "SGP4",
    "EPOCH": "2026-02-19T15:12:27.818784",
    "MEAN_MOTION": "13.48806130",
    "ECCENTRICITY": "0.00515846",
    "INCLINATION": "100.3715",
    "RA_OF_ASC_NODE": "299.7971",
    "ARG_OF_PERICENTER": "45.9486",
    "MEAN_ANOMALY": "314.5876",
    "EPHEMERIS_TYPE": "0",
    "CLASSIFICATION_TYPE": "U",
    "NORAD_CAT_ID": "40646",
    "ELEMENT_SET_NO": "999",
    "REV_AT_EPOCH": "52812",
    "BSTAR": "0.00295416940000",
    "MEAN_MOTION_DOT": "0.00001812",
    "MEAN_MOTION_DDOT": "0.0000000000000",
    "SEMIMAJOR_AXIS": "7454.791",
    "PERIOD": "106.761",
    "APOAPSIS": "1115.112",
    "PERIAPSIS": "1038.201",
    "OBJECT_TYPE": "DEBRIS",
    "RCS_SIZE": "SMALL",
    "COUNTRY_CODE": "US",
    "LAUNCH_DATE": "1966-05-15",
    "SITE": "AFWTR",
    "DECAY_DATE": null,
    "FILE": "5039972",
    "GP_ID": "313169895",
    "TLE_LINE0": "0 NIMBUS 2 DEB",
    "TLE_LINE1": "1 40646U 66040BK  26050.63365531  .00001812  00000-0  29542-2 0  9997",
    "TLE_LINE2": "2 40646 100.3715 299.7971 0051585  45.9486 314.5876 13.48806130528129"
  },
  {
    "CCSDS_OMM_VERS": "3.0",
    "COMMENT": "GENERATED VIA SPACE-TRACK.ORG API",
    "CREATION_DATE": "2026-02-19T17:59:09",
    "ORIGINATOR": "18 SPCS",
    "OBJECT_NAME": "CZ-6A DEB",
    "OBJECT_ID": "2022-151H",
    "CENTER_NAME": "EARTH",
    "REF_FRAME": "TEME",
    "TIME_SYSTEM": "UTC",
    "MEAN_ELEMENT_THEORY": "SGP4",
    "EPOCH": "2026-02-19T15:12:05.329728",
    "MEAN_MOTION": "13.33254450",
    "ECCENTRICITY": "0.04102060",
    "INCLINATION": "99.0114",
    "RA_OF_ASC_NODE": "294.6876",
    "ARG_OF_PERICENTER": "352.5612",
    "MEAN_ANOMALY": "6.9549",
    "EPHEMERIS_TYPE": "0",
    "CLASSIFICATION_TYPE": "U",
    "NORAD_CAT_ID": "54266",
    "ELEMENT_SET_NO": "999",
    "REV_AT_EPOCH": "15924",
    "BSTAR": "0.00042229228000",
    "MEAN_MOTION_DOT": "0.00000295",
    "MEAN_MOTION_DDOT": "0.0000000000000",
    "SEMIMAJOR_AXIS": "7512.650",
    "PERIOD": "108.006",
    "APOAPSIS": "1442.688",
    "PERIAPSIS": "826.341",
    "OBJECT_TYPE": "DEBRIS",
    "RCS_SIZE": "SMALL",
    "COUNTRY_CODE": "PRC",
    "LAUNCH_DATE": "2022-11-11",
    "SITE": "TSC",
    "DECAY_DATE": null,
    "FILE": "5039972",
    "GP_ID": "313176222",
    "TLE_LINE0": "0 CZ-6A DEB",
    "TLE_LINE1": "1 54266U 22151H   26050.63339502  .00000295  00000-0  42229-3 0  9996",
    "TLE_LINE2": "2 54266  99.0114 294.6876 0410206 352.5612   6.9549 13.33254450159242"
  },
  {
    "CCSDS_OMM_VERS": "3.0",
    "COMMENT": "GENERATED VIA SPACE-TRACK.ORG API",
    "CREATION_DATE": "2026-02-19T17:59:09",
    "ORIGINATOR": "18 SPCS",
    "OBJECT_NAME": "CZ-6A DEB",
    "OBJECT_ID": "2024-140CP",
    "CENTER_NAME": "EARTH",
    "REF_FRAME": "TEME",
    "TIME_SYSTEM": "UTC",
    "MEAN_ELEMENT_THEORY": "SGP4",
    "EPOCH": "2026-02-19T15:11:59.758656",
    "MEAN_MOTION": "14.40969057",
    "ECCENTRICITY": "0.00489727",
    "INCLINATION": "88.9815",
    "RA_OF_ASC_NODE": "284.8495",
    "ARG_OF_PERICENTER": "279.7548",
    "MEAN_ANOMALY": "79.8125",
    "EPHEMERIS_TYPE": "0",
    "CLASSIFICATION_TYPE": "U",
    "NORAD_CAT_ID": "60686",
    "ELEMENT_SET_NO": "999",
    "REV_AT_EPOCH": "8045",
    "BSTAR": "0.00052063616000",
    "MEAN_MOTION_DOT": "0.00001709",
    "MEAN_MOTION_DDOT": "0.0000000000000",
    "SEMIMAJOR_AXIS": "7133.435",
    "PERIOD": "99.933",
    "APOAPSIS": "790.235",
    "PERIAPSIS": "720.366",
    "OBJECT_TYPE": "DEBRIS",
    "RCS_SIZE": "MEDIUM",
    "COUNTRY_CODE": "PRC",
    "LAUNCH_DATE": "2024-08-06",
    "SITE": "TSC",
    "DECAY_DATE": null,
    "FILE": "5039972",
    "GP_ID": "313181745",
    "TLE_LINE0": "0 CZ-6A DEB",
    "TLE_LINE1": "1 60686U 24140CP  26050.63333054  .00001709  00000-0  52064-3 0  9994",
    "TLE_LINE2": "2 60686  88.9815 284.8495 0048973 279.7548  79.8125 14.40969057 80454"
  },
  {
    "CCSDS_OMM_VERS": "3.0",
    "COMMENT": "GENERATED VIA SPACE-TRACK.ORG API",
    "CREATION_DATE": "2026-02-19T17:59:09",
    "ORIGINATOR": "18 SPCS",
    "OBJECT_NAME": "CZ-6A DEB",
    "OBJECT_ID": "2024-140CX",
    "CENTER_NAME": "EARTH",
    "REF_FRAME": "TEME",
    "TIME_SYSTEM": "UTC",
    "MEAN_ELEMENT_THEORY": "SGP4",
    "EPOCH": "2026-02-19T15:11:34.204992",
    "MEAN_MOTION": "14.17332077",
    "ECCENTRICITY": "0.00583623",
    "INCLINATION": "89.0106",
    "RA_OF_ASC_NODE": "289.0823",
    "ARG_OF_PERICENTER": "225.3038",
    "MEAN_ANOMALY": "134.3389",
    "EPHEMERIS_TYPE": "0",
    "CLASSIFICATION_TYPE": "U",
    "NORAD_CAT_ID": "60694",
    "ELEMENT_SET_NO": "999",
    "REV_AT_EPOCH": "7925",
    "BSTAR": "0.00039755534000",
    "MEAN_MOTION_DOT": "0.00000831",
    "MEAN_MOTION_DDOT": "0.0000000000000",
    "SEMIMAJOR_AXIS": "7212.527",
    "PERIOD": "101.599",
    "APOAPSIS": "876.486",
    "PERIAPSIS": "792.298",
    "OBJECT_TYPE": "DEBRIS",
    "RCS_SIZE": "MEDIUM",
    "COUNTRY_CODE": "PRC",
    "LAUNCH_DATE": "2024-08-06",
    "SITE": "TSC",
    "DECAY_DATE": null,
    "FILE": "5039972",
    "GP_ID": "313181749",
    "TLE_LINE0": "0 CZ-6A DEB",
    "TLE_LINE1": "1 60694U 24140CX  26050.63303478  .00000831  00000-0  39756-3 0  9998",
    "TLE_LINE2": "2 60694  89.0106 289.0823 0058362 225.3038 134.3389 14.17332077 79259"
  },
  {
    "CCSDS_OMM_VERS": "3.0",
    "COMMENT": "GENERATED VIA SPACE-TRACK.ORG API",
    "CREATION_DATE": "2026-02-19T17:59:09",
    "ORIGINATOR": "18 SPCS",
    "OBJECT_NAME": "SL-8 DEB",
    "OBJECT_ID": "1982-055C",
    "CENTER_NAME": "EARTH",
    "REF_FRAME": "TEME",
    "TIME_SYSTEM": "UTC",
    "MEAN_ELEMENT_THEORY": "SGP4",
    "EPOCH": "2026-02-19T15:11:21.329664",
    "MEAN_MOTION": "13.72880932",
    "ECCENTRICITY": "0.00075603",
    "INCLINATION": "65.8349",
    "RA_OF_ASC_NODE": "130.1367",
    "ARG_OF_PERICENTER": "353.1392",
    "MEAN_ANOMALY": "79.2617",
    "EPHEMERIS_TYPE": "0",
    "CLASSIFICATION_TYPE": "U",
    "NORAD_CAT_ID": "13261",
    "ELEMENT_SET_NO": "999",
    "REV_AT_EPOCH": "18998",
    "BSTAR": "0.00007540951500",
    "MEAN_MOTION_DOT": "-0.00000011",
    "MEAN_MOTION_DDOT": "0.0000000000000",
    "SEMIMAJOR_AXIS": "7367.383",
    "PERIOD": "104.889",
    "APOAPSIS": "994.818",
    "PERIAPSIS": "983.678",
    "OBJECT_TYPE": "DEBRIS",
    "RCS_SIZE": "MEDIUM",
    "COUNTRY_CODE": "CIS",
    "LAUNCH_DATE": "1982-06-06",
    "SITE": "PKMTR",
    "DECAY_DATE": null,
    "FILE": "5039972",
    "GP_ID": "313159081",
    "TLE_LINE0": "0 SL-8 DEB",
    "TLE_LINE1": "1 13261U 82055C   26050.63288576 -.00000011  00000-0  75410-4 0  9995",
    "TLE_LINE2": "2 13261  65.8349 130.1367 0007560 353.1392  79.2617 13.72880932189985"
  },
  {
    "CCSDS_OMM_VERS": "3.0",
    "COMMENT": "GENERATED VIA SPACE-TRACK.ORG API",
    "CREATION_DATE": "2026-02-19T17:59:09",
    "ORIGINATOR": "18 SPCS",
    "OBJECT_NAME": "CZ-4 DEB",
    "OBJECT_ID": "1999-057MN",
    "CENTER_NAME": "EARTH",
    "REF_FRAME": "TEME",
    "TIME_SYSTEM": "UTC",
    "MEAN_ELEMENT_THEORY": "SGP4",
    "EPOCH": "2026-02-19T15:10:45.705216",
    "MEAN_MOTION": "14.49860241",
    "ECCENTRICITY": "0.00742269",
    "INCLINATION": "98.5597",
    "RA_OF_ASC_NODE": "106.1864",
    "ARG_OF_PERICENTER": "175.8288",
    "MEAN_ANOMALY": "336.2599",
    "EPHEMERIS_TYPE": "0",
    "CLASSIFICATION_TYPE": "U",
    "NORAD_CAT_ID": "27493",
    "ELEMENT_SET_NO": "999",
    "REV_AT_EPOCH": "33410",
    "BSTAR": "0.00024748196000",
    "MEAN_MOTION_DOT": "0.00000940",
    "MEAN_MOTION_DDOT": "0.0000000000000",
    "SEMIMAJOR_AXIS": "7104.242",
    "PERIOD": "99.320",
    "APOAPSIS": "778.840",
    "PERIAPSIS": "673.374",
    "OBJECT_TYPE": "DEBRIS",
    "RCS_SIZE": "SMALL",
    "COUNTRY_CODE": "PRC",
    "LAUNCH_DATE": "1999-10-14",
    "SITE": "TSC",
    "DECAY_DATE": null,
    "FILE": "5039972",
    "GP_ID": "313163208",
    "TLE_LINE0": "0 CZ-4 DEB",
    "TLE_LINE1": "1 27493U 99057MN  26050.63247344  .00000940  00000-0  24748-3 0  9992",
    "TLE_LINE2": "2 27493  98.5597 106.1864 0074227 175.8288 336.2599 14.49860241334104"
  },
  {
    "CCSDS_OMM_VERS": "3.0",
    "COMMENT": "GENERATED VIA SPACE-TRACK.ORG API",
    "CREATION_DATE": "2026-02-19T17:59:09",
    "ORIGINATOR": "18 SPCS",
    "OBJECT_NAME": "THORAD AGENA D DEB",
    "OBJECT_ID": "1970-025DY",
    "CENTER_NAME": "EARTH",
    "REF_FRAME": "TEME",
    "TIME_SYSTEM": "UTC",
    "MEAN_ELEMENT_THEORY": "SGP4",
    "EPOCH": "2026-02-19T15:10:18.947136",
    "MEAN_MOTION": "13.55617993",
    "ECCENTRICITY": "0.00343669",
    "INCLINATION": "99.9774",
    "RA_OF_ASC_NODE": "113.8359",
    "ARG_OF_PERICENTER": "353.2137",
    "MEAN_ANOMALY": "173.0861",
    "EPHEMERIS_TYPE": "0",
    "CLASSIFICATION_TYPE": "U",
    "NORAD_CAT_ID": "4778",
    "ELEMENT_SET_NO": "999",
    "REV_AT_EPOCH": "75549",
    "BSTAR": "0.00032316229000",
    "MEAN_MOTION_DOT": "0.00000179",
    "MEAN_MOTION_DDOT": "0.0000000000000",
    "SEMIMAJOR_AXIS": "7429.797",
    "PERIOD": "106.225",
    "APOAPSIS": "1077.196",
    "PERIAPSIS": "1026.128",
    "OBJECT_TYPE": "DEBRIS",
    "RCS_SIZE": "SMALL",
    "COUNTRY_CODE": "US",
    "LAUNCH_DATE": "1970-04-08",
    "SITE": "AFWTR",
    "DECAY_DATE": null,
    "FILE": "5039972",
    "GP_ID": "313156046",
    "TLE_LINE0": "0 THORAD AGENA D DEB",
    "TLE_LINE1": "1 04778U 70025DY  26050.63216374  .00000179  00000-0  32316-3 0  9990",
    "TLE_LINE2": "2 04778  99.9774 113.8359 0034367 353.2137 173.0861 13.55617993755495"
  }
]